<?xml version="1.0" encoding="UTF-8"?>
<kml xmlns="http://www.opengis.net/kml/2.2">
  <Document>
    <name>07. Late Bronze Age (LB) (-1550 to -1200 BCE)</name>
    <description>תקופת הברונזה המאוחרת (LB I-II) - 10 sites. From Dr. Zvika Tzuk's Dissertation.</description>
    <Style id="style_Late_Bronze">
      <IconStyle>
        <color>ff880088</color>
        <scale>1.1</scale>
        <Icon>
          <href>https://maps.google.com/mapfiles/kml/paddle/wht-blank.png</href>
        </Icon>
      </IconStyle>
    </Style>
    <Placemark>
      <name>Athens (Acropolis) (אתונה (יוון))</name>
      <description><![CDATA[<h3>Athens (Acropolis) (אתונה (יוון))</h3>
<p><b>Period:</b> 07. Late Bronze Age (LB) (-1550 to -1200 BCE)</p>
<p><b>Installation Type:</b> Spring Cave Capture</p>
<p><b>Location Precision:</b> Tier 4: International Comparative Site (&lt; 100m - 1km)</p>
<p><b>Region:</b> Greece</p>
<p><b>Dissertation Reference:</b> §2.7.3.a (Pages 99)</p>
<hr/>
<p><b>Archaeological Description (07. Late Bronze Age):</b></p>
<p>A cave leading to an underground corridor with a spring at its base, accessed by eight flights of stairs from the Acropolis. The entrance was sealed during sieges. Pottery dates the end of its use to the second half of the 13th century BCE.</p>]]></description>
      <styleUrl>#style_Late_Bronze</styleUrl>
      <ExtendedData>
        <Data name="Site_Name"><value>Athens (Acropolis)</value></Data>
        <Data name="Hebrew_Name"><value>אתונה (יוון)</value></Data>
        <Data name="Era"><value>07. Late Bronze Age (LB) (-1550 to -1200 BCE)</value></Data>
        <Data name="Installation_Type"><value>Spring Cave Capture</value></Data>
        <Data name="Region"><value>Greece</value></Data>
        <Data name="Location_Precision"><value>Tier 4: International Comparative Site (&lt; 100m - 1km)</value></Data>
        <Data name="Dates"><value>-1550 to -1200 BCE</value></Data>
        <Data name="Chapter_Section"><value>2.7.3.a</value></Data>
        <Data name="Dissertation_Pages"><value>99</value></Data>
        <Data name="Description"><value>A cave leading to an underground corridor with a spring at its base, accessed by eight flights of stairs from the Acropolis. The entrance was sealed during sieges. Pottery dates the end of its use to the second half of the 13th century BCE.</value></Data>
      </ExtendedData>
      <Point>
        <coordinates>23.7257,37.9715,0</coordinates>
      </Point>
    </Placemark>
    <Placemark>
      <name>Mezer (מצר)</name>
      <description><![CDATA[<h3>Mezer (מצר)</h3>
<p><b>Period:</b> 07. Late Bronze Age (LB) (-1550 to -1200 BCE)</p>
<p><b>Installation Type:</b> Water Tunnel Shaft</p>
<p><b>Location Precision:</b> Tier 1: High Precision (Pinpoint Well/Installation &lt; 50m)</p>
<p><b>Region:</b> Sinai / Egypt</p>
<p><b>Dissertation Reference:</b> §2.7.4 (Pages 100, 101)</p>
<hr/>
<p><b>Archaeological Description (07. Late Bronze Age):</b></p>
<p>A deep water shaft, 52m deep, with a staircase descending along its side, dug to reach groundwater. The excavation was documented in two texts and took 100 days with 120 workers. The bottom was moist, suggesting groundwater was reached.</p>]]></description>
      <styleUrl>#style_Late_Bronze</styleUrl>
      <ExtendedData>
        <Data name="Site_Name"><value>Mezer</value></Data>
        <Data name="Hebrew_Name"><value>מצר</value></Data>
        <Data name="Era"><value>07. Late Bronze Age (LB) (-1550 to -1200 BCE)</value></Data>
        <Data name="Installation_Type"><value>Water Tunnel Shaft</value></Data>
        <Data name="Region"><value>Sinai / Egypt</value></Data>
        <Data name="Location_Precision"><value>Tier 1: High Precision (Pinpoint Well/Installation &lt; 50m)</value></Data>
        <Data name="Dates"><value>-1550 to -1200 BCE</value></Data>
        <Data name="Chapter_Section"><value>2.7.4</value></Data>
        <Data name="Dissertation_Pages"><value>100, 101</value></Data>
        <Data name="Description"><value>A deep water shaft, 52m deep, with a staircase descending along its side, dug to reach groundwater. The excavation was documented in two texts and took 100 days with 120 workers. The bottom was moist, suggesting groundwater was reached.</value></Data>
      </ExtendedData>
      <Point>
        <coordinates>35.03584,32.47469,0</coordinates>
      </Point>
    </Placemark>
    <Placemark>
      <name>Mycenae (מיקנה (יוון))</name>
      <description><![CDATA[<h3>Mycenae (מיקנה (יוון))</h3>
<p><b>Period:</b> 07. Late Bronze Age (LB) (-1550 to -1200 BCE)</p>
<p><b>Installation Type:</b> Ancient City Water System</p>
<p><b>Location Precision:</b> Tier 4: International Comparative Site (&lt; 100m - 1km)</p>
<p><b>Region:</b> Greece</p>
<p><b>Dissertation Reference:</b> §2.7.3.b (Pages 99, 100)</p>
<hr/>
<p><b>Archaeological Description (07. Late Bronze Age):</b></p>
<p>An underground system with hidden clay pipes transporting water from the Perseia spring (360m away) to an internal reservoir within the city walls, accessed by a stepped passage. Dated to the 13th century BCE. Additionally, two wells were found within the city walls, and two external springs served settlements outside the walls.</p>]]></description>
      <styleUrl>#style_Late_Bronze</styleUrl>
      <ExtendedData>
        <Data name="Site_Name"><value>Mycenae</value></Data>
        <Data name="Hebrew_Name"><value>מיקנה (יוון)</value></Data>
        <Data name="Era"><value>07. Late Bronze Age (LB) (-1550 to -1200 BCE)</value></Data>
        <Data name="Installation_Type"><value>Ancient City Water System</value></Data>
        <Data name="Region"><value>Greece</value></Data>
        <Data name="Location_Precision"><value>Tier 4: International Comparative Site (&lt; 100m - 1km)</value></Data>
        <Data name="Dates"><value>-1550 to -1200 BCE</value></Data>
        <Data name="Chapter_Section"><value>2.7.3.b</value></Data>
        <Data name="Dissertation_Pages"><value>99, 100</value></Data>
        <Data name="Description"><value>An underground system with hidden clay pipes transporting water from the Perseia spring (360m away) to an internal reservoir within the city walls, accessed by a stepped passage. Dated to the 13th century BCE. Additionally, two wells were found within the city walls, and two external springs served settlements outside the walls.</value></Data>
      </ExtendedData>
      <Point>
        <coordinates>22.7567,37.7307,0</coordinates>
      </Point>
    </Placemark>
    <Placemark>
      <name>Tel Ashdod (תל אשדוד)</name>
      <description><![CDATA[<h3>Tel Ashdod (תל אשדוד)</h3>
<p><b>Period:</b> 07. Late Bronze Age (LB) (-1550 to -1200 BCE)</p>
<p><b>Installation Type:</b> Water Reservoir</p>
<p><b>Location Precision:</b> Tier 1: High Precision (Pinpoint Well/Installation &lt; 50m)</p>
<p><b>Region:</b> Coastal Plain</p>
<p><b>Dissertation Reference:</b> §2.7.8 (Pages 103, 104)</p>
<hr/>
<p><b>Archaeological Description (07. Late Bronze Age):</b></p>
<p>A plastered pool (4162) measuring 3.2x1.5m, found in Area G within a governor&apos;s house or palace (Strata XIV-XVII, Late Bronze Age II). It had two phases, with a brick layer beneath the plaster floor, and a drainage channel leading to a stone-lined drainage pit. Water likely collected from roofs or was manually brought from a well.</p>]]></description>
      <styleUrl>#style_Late_Bronze</styleUrl>
      <ExtendedData>
        <Data name="Site_Name"><value>Tel Ashdod</value></Data>
        <Data name="Hebrew_Name"><value>תל אשדוד</value></Data>
        <Data name="Era"><value>07. Late Bronze Age (LB) (-1550 to -1200 BCE)</value></Data>
        <Data name="Installation_Type"><value>Water Reservoir</value></Data>
        <Data name="Region"><value>Coastal Plain</value></Data>
        <Data name="Location_Precision"><value>Tier 1: High Precision (Pinpoint Well/Installation &lt; 50m)</value></Data>
        <Data name="Dates"><value>-1550 to -1200 BCE</value></Data>
        <Data name="Chapter_Section"><value>2.7.8</value></Data>
        <Data name="Dissertation_Pages"><value>103, 104</value></Data>
        <Data name="Description"><value>A plastered pool (4162) measuring 3.2x1.5m, found in Area G within a governor&apos;s house or palace (Strata XIV-XVII, Late Bronze Age II). It had two phases, with a brick layer beneath the plaster floor, and a drainage channel leading to a stone-lined drainage pit. Water likely collected from roofs or was manually brought from a well.</value></Data>
      </ExtendedData>
      <Point>
        <coordinates>34.659,31.75693,0</coordinates>
      </Point>
    </Placemark>
    <Placemark>
      <name>Tel Beit Shemesh (תל בית שמש)</name>
      <description><![CDATA[<h3>Tel Beit Shemesh (תל בית שמש)</h3>
<p><b>Period:</b> 07. Late Bronze Age (LB) (-1550 to -1200 BCE)</p>
<p><b>Installation Type:</b> Plastered Cistern</p>
<p><b>Location Precision:</b> Tier 1: High Precision (Pinpoint Well/Installation &lt; 50m)</p>
<p><b>Region:</b> Shephelah</p>
<p><b>Dissertation Reference:</b> §2.7.7 (Pages 103)</p>
<hr/>
<p><b>Archaeological Description (07. Late Bronze Age):</b></p>
<p>Numerous rock-cut, plastered cisterns (at least 24) were found, dating to Stratum IV (Late Bronze Age). They had narrow necks built up with fieldstones and a sump at the bottom. The widespread use of plaster is highlighted.</p>]]></description>
      <styleUrl>#style_Late_Bronze</styleUrl>
      <ExtendedData>
        <Data name="Site_Name"><value>Tel Beit Shemesh</value></Data>
        <Data name="Hebrew_Name"><value>תל בית שמש</value></Data>
        <Data name="Era"><value>07. Late Bronze Age (LB) (-1550 to -1200 BCE)</value></Data>
        <Data name="Installation_Type"><value>Plastered Cistern</value></Data>
        <Data name="Region"><value>Shephelah</value></Data>
        <Data name="Location_Precision"><value>Tier 1: High Precision (Pinpoint Well/Installation &lt; 50m)</value></Data>
        <Data name="Dates"><value>-1550 to -1200 BCE</value></Data>
        <Data name="Chapter_Section"><value>2.7.7</value></Data>
        <Data name="Dissertation_Pages"><value>103</value></Data>
        <Data name="Description"><value>Numerous rock-cut, plastered cisterns (at least 24) were found, dating to Stratum IV (Late Bronze Age). They had narrow necks built up with fieldstones and a sump at the bottom. The widespread use of plaster is highlighted.</value></Data>
      </ExtendedData>
      <Point>
        <coordinates>34.97173,31.74972,0</coordinates>
      </Point>
    </Placemark>
    <Placemark>
      <name>Tel Beth Shean (תל בית שאן)</name>
      <description><![CDATA[<h3>Tel Beth Shean (תל בית שאן)</h3>
<p><b>Period:</b> 07. Late Bronze Age (LB) (-1550 to -1200 BCE)</p>
<p><b>Installation Type:</b> Deep Well</p>
<p><b>Location Precision:</b> Tier 1: High Precision (Pinpoint Well/Installation &lt; 50m)</p>
<p><b>Region:</b> Jordan Valley</p>
<p><b>Dissertation Reference:</b> §2.7.1 (Pages 98)</p>
<hr/>
<p><b>Archaeological Description (07. Late Bronze Age):</b></p>
<p>A deep well, 13m deep and 0.86m in diameter, found in the southeastern part of Tel Beit She&apos;an. Its walls were built of bricks for 11.9m, with the rest being earlier fill. Dated to Stratum IXa (14th century BCE).</p>]]></description>
      <styleUrl>#style_Late_Bronze</styleUrl>
      <ExtendedData>
        <Data name="Site_Name"><value>Tel Beth Shean</value></Data>
        <Data name="Hebrew_Name"><value>תל בית שאן</value></Data>
        <Data name="Era"><value>07. Late Bronze Age (LB) (-1550 to -1200 BCE)</value></Data>
        <Data name="Installation_Type"><value>Deep Well</value></Data>
        <Data name="Region"><value>Jordan Valley</value></Data>
        <Data name="Location_Precision"><value>Tier 1: High Precision (Pinpoint Well/Installation &lt; 50m)</value></Data>
        <Data name="Dates"><value>-1550 to -1200 BCE</value></Data>
        <Data name="Chapter_Section"><value>2.7.1</value></Data>
        <Data name="Dissertation_Pages"><value>98</value></Data>
        <Data name="Description"><value>A deep well, 13m deep and 0.86m in diameter, found in the southeastern part of Tel Beit She&apos;an. Its walls were built of bricks for 11.9m, with the rest being earlier fill. Dated to Stratum IXa (14th century BCE).</value></Data>
      </ExtendedData>
      <Point>
        <coordinates>35.50446,32.50535,0</coordinates>
      </Point>
    </Placemark>
    <Placemark>
      <name>Tel Gamma (תל ג&apos;מה)</name>
      <description><![CDATA[<h3>Tel Gamma (תל ג&apos;מה)</h3>
<p><b>Period:</b> 07. Late Bronze Age (LB) (-1550 to -1200 BCE)</p>
<p><b>Installation Type:</b> Deep Well</p>
<p><b>Location Precision:</b> Tier 1: High Precision (Pinpoint Well/Installation &lt; 50m)</p>
<p><b>Region:</b> Negev</p>
<p><b>Dissertation Reference:</b> §2.7.2 (Pages 98)</p>
<hr/>
<p><b>Archaeological Description (07. Late Bronze Age):</b></p>
<p>A sealed well, evidenced by large stones with rope marks and a depression that fills with water, located 400m southwest of Nahal Besor, at the foot of the acropolis. Possibly dates to the initial phase of the lower city in the Late Bronze Age.</p>]]></description>
      <styleUrl>#style_Late_Bronze</styleUrl>
      <ExtendedData>
        <Data name="Site_Name"><value>Tel Gamma</value></Data>
        <Data name="Hebrew_Name"><value>תל ג&apos;מה</value></Data>
        <Data name="Era"><value>07. Late Bronze Age (LB) (-1550 to -1200 BCE)</value></Data>
        <Data name="Installation_Type"><value>Deep Well</value></Data>
        <Data name="Region"><value>Negev</value></Data>
        <Data name="Location_Precision"><value>Tier 1: High Precision (Pinpoint Well/Installation &lt; 50m)</value></Data>
        <Data name="Dates"><value>-1550 to -1200 BCE</value></Data>
        <Data name="Chapter_Section"><value>2.7.2</value></Data>
        <Data name="Dissertation_Pages"><value>98</value></Data>
        <Data name="Description"><value>A sealed well, evidenced by large stones with rope marks and a depression that fills with water, located 400m southwest of Nahal Besor, at the foot of the acropolis. Possibly dates to the initial phase of the lower city in the Late Bronze Age.</value></Data>
      </ExtendedData>
      <Point>
        <coordinates>34.44125,31.38813,0</coordinates>
      </Point>
    </Placemark>
    <Placemark>
      <name>Tel Hazor (תל חצור)</name>
      <description><![CDATA[<h3>Tel Hazor (תל חצור)</h3>
<p><b>Period:</b> 07. Late Bronze Age (LB) (-1550 to -1200 BCE)</p>
<p><b>Installation Type:</b> Water Reservoir</p>
<p><b>Location Precision:</b> Tier 1: High Precision (Pinpoint Well/Installation &lt; 50m)</p>
<p><b>Region:</b> Upper Galilee</p>
<p><b>Dissertation Reference:</b> §2.7.5 (Pages 101, 102)</p>
<hr/>
<p><b>Archaeological Description (07. Late Bronze Age):</b></p>
<p>A large underground water reservoir (No. 357) in the Upper City, within the Late Bronze Age palace area (Stratum XIV). It features a built entrance corridor with a corbelled arch and a rock-cut section extending 30m to a depth of 8.5m, ending in a cruciform shape. It was plastered and had carved steps, with a capacity of about 150 cubic meters. Initially, it might have been a burial cave (Stratum XV) before being converted to a reservoir. A bottle-shaped cistern, dated to the Late Bronze Age, found in the western part of the Iron Age water system entrance. Its neck was destroyed during the Iron Age construction, but it contained many intact Late Bronze Age vessels.</p>]]></description>
      <styleUrl>#style_Late_Bronze</styleUrl>
      <ExtendedData>
        <Data name="Site_Name"><value>Tel Hazor</value></Data>
        <Data name="Hebrew_Name"><value>תל חצור</value></Data>
        <Data name="Era"><value>07. Late Bronze Age (LB) (-1550 to -1200 BCE)</value></Data>
        <Data name="Installation_Type"><value>Water Reservoir</value></Data>
        <Data name="Region"><value>Upper Galilee</value></Data>
        <Data name="Location_Precision"><value>Tier 1: High Precision (Pinpoint Well/Installation &lt; 50m)</value></Data>
        <Data name="Dates"><value>-1550 to -1200 BCE</value></Data>
        <Data name="Chapter_Section"><value>2.7.5</value></Data>
        <Data name="Dissertation_Pages"><value>101, 102</value></Data>
        <Data name="Description"><value>A large underground water reservoir (No. 357) in the Upper City, within the Late Bronze Age palace area (Stratum XIV). It features a built entrance corridor with a corbelled arch and a rock-cut section extending 30m to a depth of 8.5m, ending in a cruciform shape. It was plastered and had carved steps, with a capacity of about 150 cubic meters. Initially, it might have been a burial cave (Stratum XV) before being converted to a reservoir. A bottle-shaped cistern, dated to the Late Bronze Age, found in the western part of the Iron Age water system entrance. Its neck was destroyed during the Iron Age construction, but it contained many intact Late Bronze Age vessels.</value></Data>
      </ExtendedData>
      <Point>
        <coordinates>35.56635,33.01685,0</coordinates>
      </Point>
    </Placemark>
    <Placemark>
      <name>Tel Taanach (תל תענך)</name>
      <description><![CDATA[<h3>Tel Taanach (תל תענך)</h3>
<p><b>Period:</b> 07. Late Bronze Age (LB) (-1550 to -1200 BCE)</p>
<p><b>Installation Type:</b> Water Reservoir</p>
<p><b>Location Precision:</b> Tier 1: High Precision (Pinpoint Well/Installation &lt; 50m)</p>
<p><b>Region:</b> Jezreel Valley</p>
<p><b>Dissertation Reference:</b> §2.7.6 (Pages 102, 103)</p>
<hr/>
<p><b>Archaeological Description (07. Late Bronze Age):</b></p>
<p>A square shaft (1.45m side, 7.4m preserved height) initially intended as a stepped well to groundwater, but excavation was halted. The entire system, including the shaft, was plastered to serve as a reservoir. Dated to Late Bronze Age I, possibly after Thutmose III&apos;s campaign (1468 BCE).</p>]]></description>
      <styleUrl>#style_Late_Bronze</styleUrl>
      <ExtendedData>
        <Data name="Site_Name"><value>Tel Taanach</value></Data>
        <Data name="Hebrew_Name"><value>תל תענך</value></Data>
        <Data name="Era"><value>07. Late Bronze Age (LB) (-1550 to -1200 BCE)</value></Data>
        <Data name="Installation_Type"><value>Water Reservoir</value></Data>
        <Data name="Region"><value>Jezreel Valley</value></Data>
        <Data name="Location_Precision"><value>Tier 1: High Precision (Pinpoint Well/Installation &lt; 50m)</value></Data>
        <Data name="Dates"><value>-1550 to -1200 BCE</value></Data>
        <Data name="Chapter_Section"><value>2.7.6</value></Data>
        <Data name="Dissertation_Pages"><value>102, 103</value></Data>
        <Data name="Description"><value>A square shaft (1.45m side, 7.4m preserved height) initially intended as a stepped well to groundwater, but excavation was halted. The entire system, including the shaft, was plastered to serve as a reservoir. Dated to Late Bronze Age I, possibly after Thutmose III&apos;s campaign (1468 BCE).</value></Data>
      </ExtendedData>
      <Point>
        <coordinates>35.22005,32.52158,0</coordinates>
      </Point>
    </Placemark>
    <Placemark>
      <name>Tiryns (טירינס (יוון))</name>
      <description><![CDATA[<h3>Tiryns (טירינס (יוון))</h3>
<p><b>Period:</b> 07. Late Bronze Age (LB) (-1550 to -1200 BCE)</p>
<p><b>Installation Type:</b> Spring Cave Capture</p>
<p><b>Location Precision:</b> Tier 4: International Comparative Site (&lt; 100m - 1km)</p>
<p><b>Region:</b> Greece</p>
<p><b>Dissertation Reference:</b> §2.7.3.c (Pages 100)</p>
<hr/>
<p><b>Archaeological Description (07. Late Bronze Age):</b></p>
<p>Two steep underground passages (30m long, 10m within walls) led through the 10m thick walls to two subterranean cisterns fed by springs. The passages, covered by corbelled arches, ended in small basins where water seeped from rock fissures.</p>]]></description>
      <styleUrl>#style_Late_Bronze</styleUrl>
      <ExtendedData>
        <Data name="Site_Name"><value>Tiryns</value></Data>
        <Data name="Hebrew_Name"><value>טירינס (יוון)</value></Data>
        <Data name="Era"><value>07. Late Bronze Age (LB) (-1550 to -1200 BCE)</value></Data>
        <Data name="Installation_Type"><value>Spring Cave Capture</value></Data>
        <Data name="Region"><value>Greece</value></Data>
        <Data name="Location_Precision"><value>Tier 4: International Comparative Site (&lt; 100m - 1km)</value></Data>
        <Data name="Dates"><value>-1550 to -1200 BCE</value></Data>
        <Data name="Chapter_Section"><value>2.7.3.c</value></Data>
        <Data name="Dissertation_Pages"><value>100</value></Data>
        <Data name="Description"><value>Two steep underground passages (30m long, 10m within walls) led through the 10m thick walls to two subterranean cisterns fed by springs. The passages, covered by corbelled arches, ended in small basins where water seeped from rock fissures.</value></Data>
      </ExtendedData>
      <Point>
        <coordinates>22.7997,37.6056,0</coordinates>
      </Point>
    </Placemark>
  </Document>
</kml>